NORAD_CAT_ID,OBJECT_NAME,OBJECT_TYPE,EPOCH,MEAN_MOTION,ECCENTRICITY,INCLINATION,RA_OF_ASC_NODE,ARG_OF_PERICENTER,MEAN_ANOMALY,BSTAR,MEAN_MOTION_DOT,MEAN_MOTION_DDOT,TLE_LINE0,TLE_LINE1,TLE_LINE2,SEMIMAJOR_AXIS,PERIOD,APOGEE,PERIGEE,DECAYED
49178.0,STARLINK-3086,PAYLOAD,2023-09-07 17:46:41,14.9832932,0.0003074,69.999,78.8351,268.6922,91.3885,-1.091e-05,-2.23e-06,0.0,0 STARLINK-3086,1 49178U 21082BA  23250.74076145 -.00000223  00000-0 -10910-4 0  9992,2 49178  69.9990  78.8351 0003074 268.6922  91.3885 14.98329320110236,6950.195,96.107,574.196,569.924,0.0
49178.0,STARLINK-3086,PAYLOAD,2023-09-08 13:00:18,14.98331972,0.0003098,69.9985,76.8155,269.7421,90.3383,5.3611e-05,5.47e-06,0.0,0 STARLINK-3086,1 49178U 21082BA  23251.54187735  .00000547  00000-0  53611-4 0  9991,2 49178  69.9985  76.8155 0003098 269.7421  90.3383 14.98331972110353,6950.187,96.107,574.205,569.899,0.0
49178.0,STARLINK-3086,PAYLOAD,2023-09-08 19:24:50,14.98335744,0.0003262,69.9992,76.1425,268.1687,91.9099,2.4626e-05,2.01e-06,0.0,0 STARLINK-3086,1 49178U 21082BA  23251.80891519  .00000201  00000-0  24626-4 0  9993,2 49178  69.9992  76.1425 0003262 268.1687  91.9099 14.98335744110390,6950.175,96.107,574.307,569.773,0.0
49178.0,STARLINK-3086,PAYLOAD,2023-09-08 21:00:58,14.98334436,0.000318,69.9991,75.9741,270.8784,89.2011,5.87e-05,6.08e-06,0.0,0 STARLINK-3086,1 49178U 21082BA  23251.87567538  .00000608  00000-0  58700-4 0  9992,2 49178  69.9991  75.9741 0003180 270.8784  89.2011 14.98334436110407,6950.179,96.107,574.254,569.834,0.0
49178.0,STARLINK-3086,PAYLOAD,2023-09-09 13:02:19,14.98326829,0.0003131,69.9993,74.2909,271.6443,88.4358,3.6494e-05,3.42e-06,0.0,0 STARLINK-3086,1 49178U 21082BA  23252.54328042  .00000342  00000-0  36494-4 0  9993,2 49178  69.9993  74.2909 0003131 271.6443  88.4358 14.98326829110507,6950.203,96.107,574.244,569.892,0.0
49178.0,STARLINK-3086,PAYLOAD,2023-09-09 17:50:43,14.9832805,0.0003125,69.9995,73.7859,271.9692,88.1109,4.8651e-05,4.87e-06,0.0,0 STARLINK-3086,1 49178U 21082BA  23252.74355972  .00000487  00000-0  48651-4 0  9995,2 49178  69.9995  73.7859 0003125 271.9692  88.1109 14.98328050110531,6950.199,96.107,574.236,569.892,0.0
49178.0,STARLINK-3086,PAYLOAD,2023-09-10 13:04:20,14.98320806,0.0003225,69.9996,71.7659,270.5986,89.4804,0.0002183,2.512e-05,0.0,0 STARLINK-3086,1 49178U 21082BA  23253.54467804  .00002512  00000-0  21830-3 0  9992,2 49178  69.9996  71.7659 0003225 270.5986  89.4804 14.98320806110650,6950.221,96.108,574.328,569.845,0.0
49178.0,STARLINK-3086,PAYLOAD,2023-09-10 17:52:44,14.98333292,0.0003211,69.9997,71.261,273.3116,86.7676,5.0005e-05,5.04e-06,0.0,0 STARLINK-3086,1 49178U 21082BA  23253.74495566  .00000504  00000-0  50005-4 0  9996,2 49178  69.9997  71.2610 0003211 273.3116  86.7676 14.98333292110687,6950.183,96.107,574.279,569.816,0.0
49178.0,STARLINK-3086,PAYLOAD,2023-09-11 05:05:39,14.98377626,0.0003397,70.0001,70.0825,276.406,83.6712,-0.00076873,-9.265e-05,0.0,0 STARLINK-3086,1 49178U 21082BA  23254.21226129 -.00009265  00000-0 -76873-3 0  9991,2 49178  70.0001  70.0825 0003397 276.4060  83.6712 14.98377626110752,6950.046,96.104,574.272,569.55,0.0
49178.0,STARLINK-3086,PAYLOAD,2023-09-11 13:06:21,14.98329103,0.0003056,70.0002,69.2415,269.9779,90.103,4.6913e-05,4.67e-06,0.0,0 STARLINK-3086,1 49178U 21082BA  23254.54607766  .00000467  00000-0  46913-4 0  9993,2 49178  70.0002  69.2415 0003056 269.9779  90.1030 14.98329103110803,6950.196,96.107,574.185,569.937,0.0
49178.0,STARLINK-3086,PAYLOAD,2023-09-11 17:54:45,14.98327239,0.0003054,70.0003,68.7366,269.965,90.1159,7.4993e-05,8.02e-06,0.0,0 STARLINK-3086,1 49178U 21082BA  23254.74635854  .00000802  00000-0  74993-4 0  9996,2 49178  70.0003  68.7366 0003054 269.9650  90.1159 14.98327239110832,6950.201,96.107,574.189,569.944,0.0
49178.0,STARLINK-3086,PAYLOAD,2023-09-12 13:08:22,14.98331078,0.0003025,70.0002,66.7161,269.3176,90.7636,2.8061e-05,2.42e-06,0.0,0 STARLINK-3086,1 49178U 21082BA  23255.54747697  .00000242  00000-0  28061-4 0  9997,2 49178  70.0002  66.7161 0003025 269.3176  90.7636 14.98331078110952,6950.19,96.107,574.157,569.952,0.0
49178.0,STARLINK-3086,PAYLOAD,2023-09-12 17:56:46,14.98331151,0.0003104,70.0001,66.2112,270.3612,89.7191,2.0339e-05,1.5e-06,0.0,0 STARLINK-3086,1 49178U 21082BA  23255.74775706  .00000150  00000-0  20339-4 0  9999,2 49178  70.0001  66.2112 0003104 270.3612  89.7191 14.98331151110986,6950.189,96.107,574.212,569.897,0.0
49178.0,STARLINK-3086,PAYLOAD,2023-09-12 21:09:02,14.9833272,0.0003099,70.0001,65.8744,270.0726,90.0078,3.7569e-05,3.55e-06,0.0,0 STARLINK-3086,1 49178U 21082BA  23255.88127549  .00000355  00000-0  37569-4 0  9990,2 49178  70.0001  65.8744 0003099 270.0726  90.0078 14.98332720111004,6950.184,96.107,574.203,569.896,0.0
49178.0,STARLINK-3086,PAYLOAD,2023-09-13 13:10:22,14.98334525,0.0003081,70.0,64.1906,269.8123,90.2683,0.0001069,1.183e-05,0.0,0 STARLINK-3086,1 49178U 21082BA  23256.54887119  .00001183  00000-0  10690-3 0  9995,2 49178  70.0000  64.1906 0003081 269.8123  90.2683 14.98334525111103,6950.179,96.107,574.185,569.903,0.0
49178.0,STARLINK-3086,PAYLOAD,2023-09-13 17:58:46,14.98337274,0.0003119,70.0,63.6861,270.585,89.4952,0.00010677,1.181e-05,0.0,0 STARLINK-3086,1 49178U 21082BA  23256.74914919  .00001181  00000-0  10677-3 0  9999,2 49178  70.0000  63.6861 0003119 270.5850  89.4952 14.98337274111131,6950.17,96.107,574.203,569.868,0.0
49178.0,STARLINK-3086,PAYLOAD,2023-09-13 21:11:02,14.98338056,0.0003112,70.0,63.3494,270.6573,89.4229,0.00011457,1.275e-05,0.0,0 STARLINK-3086,1 49178U 21082BA  23256.88266812  .00001275  00000-0  11457-3 0  9997,2 49178  70.0000  63.3494 0003112 270.6573  89.4229 14.98338056111154,6950.168,96.106,574.196,569.87,0.0
49178.0,STARLINK-3086,PAYLOAD,2023-09-14 10:00:07,14.98326278,0.0003053,70.0002,62.0028,270.6809,89.4,-1.0672e-05,-2.2e-06,0.0,0 STARLINK-3086,1 49178U 21082BA  23257.41675853 -.00000220  00000-0 -10672-4 0  9996,2 49178  70.0002  62.0028 0003053 270.6809  89.4000 14.98326278111230,6950.204,96.107,574.191,569.948,0.0
49178.0,STARLINK-3086,PAYLOAD,2023-09-14 13:12:24,14.98324862,0.0003056,70.0002,61.6662,270.6044,89.4765,-2.6163e-05,-4.05e-06,0.0,0 STARLINK-3086,1 49178U 21082BA  23257.55028026 -.00000405  00000-0 -26163-4 0  9992,2 49178  70.0002  61.6662 0003056 270.6044  89.4765 14.98324862111250,6950.209,96.107,574.198,569.95,0.0
49178.0,STARLINK-3086,PAYLOAD,2023-09-14 21:13:04,14.98326136,0.0003087,70.0003,60.8246,270.8715,89.209,-3.084e-05,-4.61e-06,0.0,0 STARLINK-3086,1 49178U 21082BA  23257.88408002 -.00000461  00000-0 -30840-4 0  9993,2 49178  70.0003  60.8246 0003087 270.8715  89.2090 14.98326136111302,6950.205,96.107,574.215,569.924,0.0
49178.0,STARLINK-3086,PAYLOAD,2023-09-15 10:02:08,14.98334418,0.0003058,70.0005,59.478,271.7267,88.3542,2.5697e-05,2.14e-06,0.0,0 STARLINK-3086,1 49178U 21082BA  23258.41815392  .00000214  00000-0  25697-4 0  9995,2 49178  70.0005  59.4780 0003058 271.7267  88.3542 14.98334418111383,6950.179,96.107,574.17,569.919,0.0
49178.0,STARLINK-3086,PAYLOAD,2023-09-15 13:14:24,14.98334704,0.0003071,70.0005,59.1413,271.6261,88.4547,2.8166e-05,2.43e-06,0.0,0 STARLINK-3086,1 49178U 21082BA  23258.55167301  .00000243  00000-0  28166-4 0  9996,2 49178  70.0005  59.1413 0003071 271.6261  88.4547 14.98334704111408,6950.178,96.107,574.178,569.909,0.0
49178.0,STARLINK-3086,PAYLOAD,2023-09-16 10:04:09,14.98329443,0.0002895,69.9999,56.9522,272.2297,87.8531,0.00012403,1.387e-05,0.0,0 STARLINK-3086,1 49178U 21082BA  23259.41955341  .00001387  00000-0  12403-3 0  9997,2 49178  69.9999  56.9522 0002895 272.2297  87.8531 14.98329443111536,6950.195,96.107,574.072,570.048,0.0
49178.0,STARLINK-3086,PAYLOAD,2023-09-16 13:16:25,14.98325983,0.0003095,70.0006,56.6172,266.9981,93.0824,0.00010487,1.158e-05,0.0,0 STARLINK-3086,1 49178U 21082BA  23259.55307551  .00001158  00000-0  10487-3 0  9992,2 49178  70.0006  56.6172 0003095 266.9981  93.0824 14.98325983111550,6950.205,96.107,574.221,569.919,0.0
49178.0,STARLINK-3086,PAYLOAD,2023-09-17 13:18:26,14.98346297,0.0003071,70.0009,54.0919,268.3362,91.7445,-0.00023728,-2.924e-05,0.0,0 STARLINK-3086,1 49178U 21082BA  23260.55447283 -.00002924  00000-0 -23728-3 0  9997,2 49178  70.0009  54.0919 0003071 268.3362  91.7445 14.98346297111709,6950.142,96.106,574.142,569.873,0.0
49178.0,STARLINK-3086,PAYLOAD,2023-09-17 18:06:50,14.98344478,0.0003021,70.0009,53.5866,266.755,93.3263,-0.00018263,-2.272e-05,0.0,0 STARLINK-3086,1 49178U 21082BA  23260.75475073 -.00002272  00000-0 -18263-3 0  9991,2 49178  70.0009  53.5866 0003021 266.7550  93.3263 14.98344478111738,6950.148,96.106,574.113,569.913,0.0
49178.0,STARLINK-3086,PAYLOAD,2023-09-17 19:42:58,14.98332989,0.0003022,70.0011,53.4187,267.012,93.0693,3.7546e-05,3.55e-06,0.0,0 STARLINK-3086,1 49178U 21082BA  23260.82151358  .00000355  00000-0  37546-4 0  9990,2 49178  70.0011  53.4187 0003022 267.0120  93.0693 14.98332989111743,6950.184,96.107,574.149,569.948,0.0
49178.0,STARLINK-3086,PAYLOAD,2023-09-18 13:20:27,14.98329935,0.0003121,70.0009,51.5671,270.0668,90.0134,2.5953e-05,2.17e-06,0.0,0 STARLINK-3086,1 49178U 21082BA  23261.55587496  .00000217  00000-0  25953-4 0  9993,2 49178  70.0009  51.5671 0003121 270.0668  90.0134 14.98329935111854,6950.193,96.107,574.227,569.889,0.0
49178.0,STARLINK-3086,PAYLOAD,2023-09-18 19:44:59,14.98334655,0.0003096,70.001,50.8938,269.3524,90.728,8.2444e-05,8.91e-06,0.0,0 STARLINK-3086,1 49178U 21082BA  23261.82291035  .00000891  00000-0  82444-4 0  9990,2 49178  70.0010  50.8938 0003096 269.3524  90.7280 14.98334655111895,6950.178,96.107,574.195,569.892,0.0
49178.0,STARLINK-3086,PAYLOAD,2023-09-19 19:46:59,14.98336649,0.0003053,70.0008,48.369,268.7966,91.2843,0.00016977,1.934e-05,0.0,0 STARLINK-3086,1 49178U 21082BA  23262.82430473  .00001934  00000-0  16977-3 0  9998,2 49178  70.0008  48.3690 0003053 268.7966  91.2843 14.98336649112049,6950.172,96.107,574.159,569.915,0.0
